{
  "links" : {
    "next" : "https://api.nasa.gov/neo/rest/v1/feed?start_date=2009-04-23&end_date=2009-04-23&detailed=true&api_key=t0TVs3DtDT2H8Oy2Zy8m2eVrNsAVKAexjcZXUckd",
    "prev" : "https://api.nasa.gov/neo/rest/v1/feed?start_date=2009-04-21&end_date=2009-04-21&detailed=true&api_key=t0TVs3DtDT2H8Oy2Zy8m2eVrNsAVKAexjcZXUckd",
    "self" : "https://api.nasa.gov/neo/rest/v1/feed?start_date=2009-04-22&end_date=2009-04-22&detailed=true&api_key=t0TVs3DtDT2H8Oy2Zy8m2eVrNsAVKAexjcZXUckd"
  },
  "element_count" : 6,
  "near_earth_objects" : {
    "2009-04-22" : [ {
      "links" : {
        "self" : "https://api.nasa.gov/neo/rest/v1/neo/3560920?api_key=t0TVs3DtDT2H8Oy2Zy8m2eVrNsAVKAexjcZXUckd"
      },
      "neo_reference_id" : "3560920",
      "name" : "(2011 GF)",
      "nasa_jpl_url" : "http://ssd.jpl.nasa.gov/sbdb.cgi?sstr=3560920",
      "absolute_magnitude_h" : 21.0,
      "estimated_diameter" : {
        "kilometers" : {
          "estimated_diameter_min" : 0.1677084622,
          "estimated_diameter_max" : 0.3750075218
        },
        "meters" : {
          "estimated_diameter_min" : 167.7084621628,
          "estimated_diameter_max" : 375.0075217981
        },
        "miles" : {
          "estimated_diameter_min" : 0.1042091748,
          "estimated_diameter_max" : 0.2330187988
        },
        "feet" : {
          "estimated_diameter_min" : 550.2246310023,
          "estimated_diameter_max" : 1230.3396778159
        }
      },
      "is_potentially_hazardous_asteroid" : false,
      "close_approach_data" : [ {
        "close_approach_date" : "2009-04-22",
        "epoch_date_close_approach" : 1240383600000,
        "relative_velocity" : {
          "kilometers_per_second" : "18.8566192443",
          "kilometers_per_hour" : "67883.8292795275",
          "miles_per_hour" : "42180.3715876042"
        },
        "miss_distance" : {
          "astronomical" : "0.1833639055",
          "lunar" : "71.3285598755",
          "kilometers" : "27430850",
          "miles" : "17044740"
        },
        "orbiting_body" : "Earth"
      } ],
      "orbital_data" : {
        "orbit_id" : "25",
        "orbit_determination_date" : "2017-04-06 08:53:54",
        "orbit_uncertainty" : "7",
        "minimum_orbit_intersection" : ".0818263",
        "jupiter_tisserand_invariant" : "4.159",
        "epoch_osculation" : "2458000.5",
        "eccentricity" : ".3231307198696289",
        "semi_major_axis" : "1.574634139123105",
        "inclination" : "34.88932401133287",
        "ascending_node_longitude" : "26.09555695857123",
        "orbital_period" : "721.7186388448574",
        "perihelion_distance" : "1.065821476216963",
        "perihelion_argument" : "202.2701049207707",
        "aphelion_distance" : "2.083446802029247",
        "perihelion_time" : "2457856.705227883633",
        "mean_anomaly" : "71.72617579164357",
        "mean_motion" : ".4988093428987727",
        "equinox" : "J2000"
      }
    }, {
      "links" : {
        "self" : "https://api.nasa.gov/neo/rest/v1/neo/3602621?api_key=t0TVs3DtDT2H8Oy2Zy8m2eVrNsAVKAexjcZXUckd"
      },
      "neo_reference_id" : "3602621",
      "name" : "(2012 HL)",
      "nasa_jpl_url" : "http://ssd.jpl.nasa.gov/sbdb.cgi?sstr=3602621",
      "absolute_magnitude_h" : 22.5,
      "estimated_diameter" : {
        "kilometers" : {
          "estimated_diameter_min" : 0.0840533402,
          "estimated_diameter_max" : 0.1879489824
        },
        "meters" : {
          "estimated_diameter_min" : 84.0533402073,
          "estimated_diameter_max" : 187.9489824394
        },
        "miles" : {
          "estimated_diameter_min" : 0.0522283081,
          "estimated_diameter_max" : 0.1167860472
        },
        "feet" : {
          "estimated_diameter_min" : 275.7655606856,
          "estimated_diameter_max" : 616.6305395464
        }
      },
      "is_potentially_hazardous_asteroid" : false,
      "close_approach_data" : [ {
        "close_approach_date" : "2009-04-22",
        "epoch_date_close_approach" : 1240383600000,
        "relative_velocity" : {
          "kilometers_per_second" : "12.7794646587",
          "kilometers_per_hour" : "46006.0727712516",
          "miles_per_hour" : "28586.3844950035"
        },
        "miss_distance" : {
          "astronomical" : "0.1241242174",
          "lunar" : "48.2843208313",
          "kilometers" : "18568718",
          "miles" : "11538067"
        },
        "orbiting_body" : "Earth"
      } ],
      "orbital_data" : {
        "orbit_id" : "36",
        "orbit_determination_date" : "2017-04-06 08:50:06",
        "orbit_uncertainty" : "0",
        "minimum_orbit_intersection" : ".0531143",
        "jupiter_tisserand_invariant" : "3.555",
        "epoch_osculation" : "2458000.5",
        "eccentricity" : ".5200170203095216",
        "semi_major_axis" : "2.093050775938053",
        "inclination" : "9.271874369486056",
        "ascending_node_longitude" : "210.2241899792138",
        "orbital_period" : "1106.03296984192",
        "perihelion_distance" : "1.004628748078215",
        "perihelion_argument" : "40.61203644084463",
        "aphelion_distance" : "3.181472803797892",
        "perihelion_time" : "2458287.391356900708",
        "mean_anomaly" : "266.6204251587399",
        "mean_motion" : ".3254875847430235",
        "equinox" : "J2000"
      }
    }, {
      "links" : {
        "self" : "https://api.nasa.gov/neo/rest/v1/neo/3695411?api_key=t0TVs3DtDT2H8Oy2Zy8m2eVrNsAVKAexjcZXUckd"
      },
      "neo_reference_id" : "3695411",
      "name" : "(2014 UD176)",
      "nasa_jpl_url" : "http://ssd.jpl.nasa.gov/sbdb.cgi?sstr=3695411",
      "absolute_magnitude_h" : 24.8,
      "estimated_diameter" : {
        "kilometers" : {
          "estimated_diameter_min" : 0.0291443905,
          "estimated_diameter_max" : 0.0651688382
        },
        "meters" : {
          "estimated_diameter_min" : 29.1443904535,
          "estimated_diameter_max" : 65.1688382168
        },
        "miles" : {
          "estimated_diameter_min" : 0.018109479,
          "estimated_diameter_max" : 0.0404940262
        },
        "feet" : {
          "estimated_diameter_min" : 95.6180819754,
          "estimated_diameter_max" : 213.8085311752
        }
      },
      "is_potentially_hazardous_asteroid" : false,
      "close_approach_data" : [ {
        "close_approach_date" : "2009-04-22",
        "epoch_date_close_approach" : 1240383600000,
        "relative_velocity" : {
          "kilometers_per_second" : "9.8171954115",
          "kilometers_per_hour" : "35341.9034814453",
          "miles_per_hour" : "21960.0844160125"
        },
        "miss_distance" : {
          "astronomical" : "0.162538023",
          "lunar" : "63.2272911072",
          "kilometers" : "24315342",
          "miles" : "15108853"
        },
        "orbiting_body" : "Earth"
      } ],
      "orbital_data" : {
        "orbit_id" : "11",
        "orbit_determination_date" : "2017-04-06 08:37:42",
        "orbit_uncertainty" : "6",
        "minimum_orbit_intersection" : ".000330703",
        "jupiter_tisserand_invariant" : "5.244",
        "epoch_osculation" : "2458000.5",
        "eccentricity" : ".4304064389612794",
        "semi_major_axis" : "1.184651972274865",
        "inclination" : "8.483894013259851",
        "ascending_node_longitude" : "28.94896095798504",
        "orbital_period" : "470.9606254692622",
        "perihelion_distance" : ".6747701354795839",
        "perihelion_argument" : "265.9049646043155",
        "aphelion_distance" : "1.694533809070146",
        "perihelion_time" : "2457835.130103812923",
        "mean_anomaly" : "126.4079402986804",
        "mean_motion" : ".76439511188711",
        "equinox" : "J2000"
      }
    } ]
  }
}